[{"OBJECT_NAME":"GEOSCAN 6 (RS92S6)","OBJECT_ID":"2025-155D","EPOCH":"2026-03-09T21:52:39.201312","MEAN_MOTION":15.27985277,"ECCENTRICITY":0.00087677,"INCLINATION":97.4466,"RA_OF_ASC_NODE":37.2933,"ARG_OF_PERICENTER":153.7679,"MEAN_ANOMALY":206.4006,"EPHEMERIS_TYPE":0,"CLASSIFICATION_TYPE":"U","NORAD_CAT_ID":64879,"ELEMENT_SET_NO":999,"REV_AT_EPOCH":6559,"BSTAR":0.00053762354,"MEAN_MOTION_DOT":0.00014633,"MEAN_MOTION_DDOT":0},{"OBJECT_NAME":"STARLINK-36036","OBJECT_ID":"2025-270W","EPOCH":"2026-03-09T00:05:29.727456","MEAN_MOTION":15.2758616,"ECCENTRICITY":8.05e-5,"INCLINATION":43.0011,"RA_OF_ASC_NODE":59.8195,"ARG_OF_PERICENTER":74.7687,"MEAN_ANOMALY":285.3254,"EPHEMERIS_TYPE":0,"CLASSIFICATION_TYPE":"U","NORAD_CAT_ID":66608,"ELEMENT_SET_NO":999,"REV_AT_EPOCH":1744,"BSTAR":0.00096854664,"MEAN_MOTION_DOT":0.00026491,"MEAN_MOTION_DDOT":0}]
